<?xml version="1.0" encoding="UTF-8"?>
<gpx version="1.1" creator="srednabg-make-xcode-zone-route" xmlns="http://www.topografix.com/GPX/1/1">
  <wpt lat="42.5518193" lon="23.7001826"><time>2026-04-17T05:00:00Z</time></wpt>
  <wpt lat="42.5510199" lon="23.7016576"><time>2026-04-17T05:00:02Z</time></wpt>
  <wpt lat="42.5504870" lon="23.7026410"><time>2026-04-17T05:00:04Z</time></wpt>
  <wpt lat="42.5496360" lon="23.7042070"><time>2026-04-17T05:00:06Z</time></wpt>
  <wpt lat="42.5486170" lon="23.7060800"><time>2026-04-17T05:00:09Z</time></wpt>
  <wpt lat="42.5476830" lon="23.7077930"><time>2026-04-17T05:00:12Z</time></wpt>
  <wpt lat="42.5467380" lon="23.7095180"><time>2026-04-17T05:00:14Z</time></wpt>
  <wpt lat="42.5457220" lon="23.7113840"><time>2026-04-17T05:00:17Z</time></wpt>
  <wpt lat="42.5447800" lon="23.7131060"><time>2026-04-17T05:00:20Z</time></wpt>
  <wpt lat="42.5439300" lon="23.7146680"><time>2026-04-17T05:00:22Z</time></wpt>
  <wpt lat="42.5428690" lon="23.7164980"><time>2026-04-17T05:00:25Z</time></wpt>
  <wpt lat="42.5417460" lon="23.7182610"><time>2026-04-17T05:00:28Z</time></wpt>
  <wpt lat="42.5406770" lon="23.7198280"><time>2026-04-17T05:00:30Z</time></wpt>
  <wpt lat="42.5396110" lon="23.7214070"><time>2026-04-17T05:00:33Z</time></wpt>
  <wpt lat="42.5386810" lon="23.7228790"><time>2026-04-17T05:00:35Z</time></wpt>
  <wpt lat="42.5377090" lon="23.7245590"><time>2026-04-17T05:00:38Z</time></wpt>
  <wpt lat="42.5364710" lon="23.7269390"><time>2026-04-17T05:00:41Z</time></wpt>
  <wpt lat="42.5355590" lon="23.7289130"><time>2026-04-17T05:00:44Z</time></wpt>
  <wpt lat="42.5348320" lon="23.7305890"><time>2026-04-17T05:00:47Z</time></wpt>
  <wpt lat="42.5340370" lon="23.7324290"><time>2026-04-17T05:00:49Z</time></wpt>
  <wpt lat="42.5332760" lon="23.7340680"><time>2026-04-17T05:00:52Z</time></wpt>
  <wpt lat="42.5323000" lon="23.7359740"><time>2026-04-17T05:00:54Z</time></wpt>
  <wpt lat="42.5313670" lon="23.7376980"><time>2026-04-17T05:00:57Z</time></wpt>
  <wpt lat="42.5303720" lon="23.7394880"><time>2026-04-17T05:01:00Z</time></wpt>
  <wpt lat="42.5294860" lon="23.7410250"><time>2026-04-17T05:01:02Z</time></wpt>
  <wpt lat="42.5283040" lon="23.7427710"><time>2026-04-17T05:01:05Z</time></wpt>
  <wpt lat="42.5271530" lon="23.7442540"><time>2026-04-17T05:01:08Z</time></wpt>
  <wpt lat="42.5259520" lon="23.7456310"><time>2026-04-17T05:01:10Z</time></wpt>
  <wpt lat="42.5246830" lon="23.7469090"><time>2026-04-17T05:01:13Z</time></wpt>
  <wpt lat="42.5233730" lon="23.7480670"><time>2026-04-17T05:01:15Z</time></wpt>
  <wpt lat="42.5218720" lon="23.7492090"><time>2026-04-17T05:01:18Z</time></wpt>
  <wpt lat="42.5204460" lon="23.7501590"><time>2026-04-17T05:01:21Z</time></wpt>
  <wpt lat="42.5191340" lon="23.7509760"><time>2026-04-17T05:01:23Z</time></wpt>
  <wpt lat="42.5178970" lon="23.7517480"><time>2026-04-17T05:01:26Z</time></wpt>
  <wpt lat="42.5163430" lon="23.7527120"><time>2026-04-17T05:01:28Z</time></wpt>
  <wpt lat="42.5150900" lon="23.7536240"><time>2026-04-17T05:01:31Z</time></wpt>
  <wpt lat="42.5139040" lon="23.7547210"><time>2026-04-17T05:01:33Z</time></wpt>
  <wpt lat="42.5128310" lon="23.7560150"><time>2026-04-17T05:01:35Z</time></wpt>
  <wpt lat="42.5118950" lon="23.7574930"><time>2026-04-17T05:01:38Z</time></wpt>
  <wpt lat="42.5108380" lon="23.7593300"><time>2026-04-17T05:01:41Z</time></wpt>
  <wpt lat="42.5097790" lon="23.7611710"><time>2026-04-17T05:01:44Z</time></wpt>
  <wpt lat="42.5086970" lon="23.7629930"><time>2026-04-17T05:01:46Z</time></wpt>
  <wpt lat="42.5077080" lon="23.7643990"><time>2026-04-17T05:01:49Z</time></wpt>
  <wpt lat="42.5065800" lon="23.7656200"><time>2026-04-17T05:01:51Z</time></wpt>
  <wpt lat="42.5052510" lon="23.7667910"><time>2026-04-17T05:01:54Z</time></wpt>
  <wpt lat="42.5040370" lon="23.7678330"><time>2026-04-17T05:01:56Z</time></wpt>
  <wpt lat="42.5027070" lon="23.7689870"><time>2026-04-17T05:01:59Z</time></wpt>
  <wpt lat="42.5013820" lon="23.7701380"><time>2026-04-17T05:02:01Z</time></wpt>
  <wpt lat="42.5000530" lon="23.7712740"><time>2026-04-17T05:02:04Z</time></wpt>
  <wpt lat="42.4988470" lon="23.7723380"><time>2026-04-17T05:02:06Z</time></wpt>
  <wpt lat="42.4976320" lon="23.7734110"><time>2026-04-17T05:02:09Z</time></wpt>
  <wpt lat="42.4964290" lon="23.7744620"><time>2026-04-17T05:02:11Z</time></wpt>
  <wpt lat="42.4950990" lon="23.7756250"><time>2026-04-17T05:02:14Z</time></wpt>
  <wpt lat="42.4938080" lon="23.7768570"><time>2026-04-17T05:02:16Z</time></wpt>
  <wpt lat="42.4926640" lon="23.7781980"><time>2026-04-17T05:02:19Z</time></wpt>
  <wpt lat="42.4915560" lon="23.7798410"><time>2026-04-17T05:02:22Z</time></wpt>
  <wpt lat="42.4906140" lon="23.7815620"><time>2026-04-17T05:02:24Z</time></wpt>
  <wpt lat="42.4898030" lon="23.7831500"><time>2026-04-17T05:02:26Z</time></wpt>
  <wpt lat="42.4889970" lon="23.7847330"><time>2026-04-17T05:02:29Z</time></wpt>
  <wpt lat="42.4881580" lon="23.7862810"><time>2026-04-17T05:02:31Z</time></wpt>
  <wpt lat="42.4872420" lon="23.7876710"><time>2026-04-17T05:02:33Z</time></wpt>
  <wpt lat="42.4862400" lon="23.7889210"><time>2026-04-17T05:02:36Z</time></wpt>
  <wpt lat="42.4849870" lon="23.7901800"><time>2026-04-17T05:02:38Z</time></wpt>
  <wpt lat="42.4837400" lon="23.7911750"><time>2026-04-17T05:02:41Z</time></wpt>
  <wpt lat="42.4823790" lon="23.7921900"><time>2026-04-17T05:02:43Z</time></wpt>
  <wpt lat="42.4811150" lon="23.7931160"><time>2026-04-17T05:02:46Z</time></wpt>
  <wpt lat="42.4798920" lon="23.7941270"><time>2026-04-17T05:02:48Z</time></wpt>
  <wpt lat="42.4787760" lon="23.7953410"><time>2026-04-17T05:02:50Z</time></wpt>
  <wpt lat="42.4777910" lon="23.7967500"><time>2026-04-17T05:02:53Z</time></wpt>
  <wpt lat="42.4768740" lon="23.7984850"><time>2026-04-17T05:02:55Z</time></wpt>
  <wpt lat="42.4760350" lon="23.8005170"><time>2026-04-17T05:02:58Z</time></wpt>
  <wpt lat="42.4751520" lon="23.8027250"><time>2026-04-17T05:03:01Z</time></wpt>
  <wpt lat="42.4743450" lon="23.8047810"><time>2026-04-17T05:03:04Z</time></wpt>
  <wpt lat="42.4736020" lon="23.8066530"><time>2026-04-17T05:03:07Z</time></wpt>
  <wpt lat="42.4728730" lon="23.8083200"><time>2026-04-17T05:03:09Z</time></wpt>
  <wpt lat="42.4720160" lon="23.8101000"><time>2026-04-17T05:03:12Z</time></wpt>
  <wpt lat="42.4711400" lon="23.8118460"><time>2026-04-17T05:03:14Z</time></wpt>
  <wpt lat="42.4703220" lon="23.8134690"><time>2026-04-17T05:03:17Z</time></wpt>
  <wpt lat="42.4693650" lon="23.8153510"><time>2026-04-17T05:03:19Z</time></wpt>
  <wpt lat="42.4685800" lon="23.8169930"><time>2026-04-17T05:03:22Z</time></wpt>
  <wpt lat="42.4677390" lon="23.8190270"><time>2026-04-17T05:03:25Z</time></wpt>
  <wpt lat="42.4670100" lon="23.8211440"><time>2026-04-17T05:03:27Z</time></wpt>
  <wpt lat="42.4663720" lon="23.8233240"><time>2026-04-17T05:03:30Z</time></wpt>
  <wpt lat="42.4657320" lon="23.8256490"><time>2026-04-17T05:03:33Z</time></wpt>
  <wpt lat="42.4652020" lon="23.8273520"><time>2026-04-17T05:03:36Z</time></wpt>
  <wpt lat="42.4645130" lon="23.8289370"><time>2026-04-17T05:03:38Z</time></wpt>
  <wpt lat="42.4635770" lon="23.8304600"><time>2026-04-17T05:03:40Z</time></wpt>
  <wpt lat="42.4624900" lon="23.8317490"><time>2026-04-17T05:03:43Z</time></wpt>
  <wpt lat="42.4608740" lon="23.8332030"><time>2026-04-17T05:03:46Z</time></wpt>
  <wpt lat="42.4593010" lon="23.8345650"><time>2026-04-17T05:03:49Z</time></wpt>
  <wpt lat="42.4573940" lon="23.8362030"><time>2026-04-17T05:03:53Z</time></wpt>
  <wpt lat="42.4559360" lon="23.8374960"><time>2026-04-17T05:03:56Z</time></wpt>
  <wpt lat="42.4546090" lon="23.8387770"><time>2026-04-17T05:03:58Z</time></wpt>
  <wpt lat="42.4533270" lon="23.8401670"><time>2026-04-17T05:04:01Z</time></wpt>
  <wpt lat="42.4513540" lon="23.8424200"><time>2026-04-17T05:04:05Z</time></wpt>
  <wpt lat="42.4501940" lon="23.8437600"><time>2026-04-17T05:04:08Z</time></wpt>
  <wpt lat="42.4491460" lon="23.8449210"><time>2026-04-17T05:04:10Z</time></wpt>
  <wpt lat="42.4479900" lon="23.8460570"><time>2026-04-17T05:04:12Z</time></wpt>
  <wpt lat="42.4468100" lon="23.8470170"><time>2026-04-17T05:04:15Z</time></wpt>
  <wpt lat="42.4453720" lon="23.8479320"><time>2026-04-17T05:04:17Z</time></wpt>
  <wpt lat="42.4440630" lon="23.8485420"><time>2026-04-17T05:04:20Z</time></wpt>
  <wpt lat="42.4424850" lon="23.8490340"><time>2026-04-17T05:04:22Z</time></wpt>
  <wpt lat="42.4406720" lon="23.8493410"><time>2026-04-17T05:04:25Z</time></wpt>
  <wpt lat="42.4390920" lon="23.8495500"><time>2026-04-17T05:04:28Z</time></wpt>
  <wpt lat="42.4377260" lon="23.8498400"><time>2026-04-17T05:04:30Z</time></wpt>
  <wpt lat="42.4361870" lon="23.8503560"><time>2026-04-17T05:04:33Z</time></wpt>
  <wpt lat="42.4347090" lon="23.8509540"><time>2026-04-17T05:04:35Z</time></wpt>
  <wpt lat="42.4333470" lon="23.8514980"><time>2026-04-17T05:04:38Z</time></wpt>
  <wpt lat="42.4320540" lon="23.8520330"><time>2026-04-17T05:04:40Z</time></wpt>
  <wpt lat="42.4306620" lon="23.8526150"><time>2026-04-17T05:04:42Z</time></wpt>
  <wpt lat="42.4291540" lon="23.8532410"><time>2026-04-17T05:04:45Z</time></wpt>
  <wpt lat="42.4276320" lon="23.8538830"><time>2026-04-17T05:04:48Z</time></wpt>
  <wpt lat="42.4269940" lon="23.8541630"><time>2026-04-17T05:04:49Z</time></wpt>
</gpx>
