<?xml version="1.0" encoding="UTF-8"?>
<gpx version="1.1" creator="srednabg-gpx-to-xcode" xmlns="http://www.topografix.com/GPX/1/1">
  <wpt lat="42.5611436" lon="23.6829706"><time>2026-04-17T05:00:33Z</time></wpt>
  <wpt lat="42.5609068" lon="23.6834078"><time>2026-04-17T05:00:34Z</time></wpt>
  <wpt lat="42.5606701" lon="23.6838450"><time>2026-04-17T05:00:35Z</time></wpt>
  <wpt lat="42.5604333" lon="23.6842822"><time>2026-04-17T05:00:36Z</time></wpt>
  <wpt lat="42.5601965" lon="23.6847193"><time>2026-04-17T05:00:37Z</time></wpt>
  <wpt lat="42.5599597" lon="23.6851565"><time>2026-04-17T05:00:38Z</time></wpt>
  <wpt lat="42.5597229" lon="23.6855937"><time>2026-04-17T05:00:39Z</time></wpt>
  <wpt lat="42.5594861" lon="23.6860309"><time>2026-04-17T05:00:40Z</time></wpt>
  <wpt lat="42.5592493" lon="23.6864680"><time>2026-04-17T05:00:41Z</time></wpt>
  <wpt lat="42.5590126" lon="23.6869052"><time>2026-04-17T05:00:42Z</time></wpt>
  <wpt lat="42.5587758" lon="23.6873424"><time>2026-04-17T05:00:43Z</time></wpt>
  <wpt lat="42.5585390" lon="23.6877795"><time>2026-04-17T05:00:44Z</time></wpt>
  <wpt lat="42.5583022" lon="23.6882167"><time>2026-04-17T05:00:45Z</time></wpt>
  <wpt lat="42.5580654" lon="23.6886538"><time>2026-04-17T05:00:46Z</time></wpt>
  <wpt lat="42.5578286" lon="23.6890910"><time>2026-04-17T05:00:47Z</time></wpt>
  <wpt lat="42.5575918" lon="23.6895281"><time>2026-04-17T05:00:48Z</time></wpt>
  <wpt lat="42.5573550" lon="23.6899653"><time>2026-04-17T05:00:49Z</time></wpt>
  <wpt lat="42.5571182" lon="23.6904024"><time>2026-04-17T05:00:50Z</time></wpt>
  <wpt lat="42.5568814" lon="23.6908396"><time>2026-04-17T05:00:51Z</time></wpt>
  <wpt lat="42.5566446" lon="23.6912767"><time>2026-04-17T05:00:52Z</time></wpt>
  <wpt lat="42.5564078" lon="23.6917138"><time>2026-04-17T05:00:53Z</time></wpt>
  <wpt lat="42.5561709" lon="23.6921509"><time>2026-04-17T05:00:54Z</time></wpt>
  <wpt lat="42.5559341" lon="23.6925881"><time>2026-04-17T05:00:55Z</time></wpt>
  <wpt lat="42.5556973" lon="23.6930252"><time>2026-04-17T05:00:56Z</time></wpt>
  <wpt lat="42.5554605" lon="23.6934623"><time>2026-04-17T05:00:57Z</time></wpt>
  <wpt lat="42.5552237" lon="23.6938994"><time>2026-04-17T05:00:58Z</time></wpt>
  <wpt lat="42.5549869" lon="23.6943365"><time>2026-04-17T05:00:59Z</time></wpt>
  <wpt lat="42.5547500" lon="23.6947736"><time>2026-04-17T05:01:00Z</time></wpt>
  <wpt lat="42.5545132" lon="23.6952107"><time>2026-04-17T05:01:01Z</time></wpt>
  <wpt lat="42.5542764" lon="23.6956478"><time>2026-04-17T05:01:02Z</time></wpt>
  <wpt lat="42.5540396" lon="23.6960849"><time>2026-04-17T05:01:03Z</time></wpt>
  <wpt lat="42.5538027" lon="23.6965220"><time>2026-04-17T05:01:04Z</time></wpt>
  <wpt lat="42.5535659" lon="23.6969591"><time>2026-04-17T05:01:05Z</time></wpt>
  <wpt lat="42.5533291" lon="23.6973962"><time>2026-04-17T05:01:06Z</time></wpt>
  <wpt lat="42.5530923" lon="23.6978333"><time>2026-04-17T05:01:07Z</time></wpt>
  <wpt lat="42.5528554" lon="23.6982704"><time>2026-04-17T05:01:08Z</time></wpt>
  <wpt lat="42.5526186" lon="23.6987075"><time>2026-04-17T05:01:09Z</time></wpt>
  <wpt lat="42.5523818" lon="23.6991445"><time>2026-04-17T05:01:10Z</time></wpt>
  <wpt lat="42.5521449" lon="23.6995816"><time>2026-04-17T05:01:11Z</time></wpt>
  <wpt lat="42.5519081" lon="23.7000187"><time>2026-04-17T05:01:12Z</time></wpt>
  <wpt lat="42.5516712" lon="23.7004557"><time>2026-04-17T05:01:13Z</time></wpt>
  <wpt lat="42.5514344" lon="23.7008928"><time>2026-04-17T05:01:14Z</time></wpt>
  <wpt lat="42.5511975" lon="23.7013298"><time>2026-04-17T05:01:15Z</time></wpt>
  <wpt lat="42.5509607" lon="23.7017669"><time>2026-04-17T05:01:16Z</time></wpt>
  <wpt lat="42.5507239" lon="23.7022040"><time>2026-04-17T05:01:17Z</time></wpt>
  <wpt lat="42.5504870" lon="23.7026410"><time>2026-04-17T05:01:18Z</time></wpt>
  <wpt lat="42.5504870" lon="23.7026410"><time>2026-04-17T05:01:19Z</time></wpt>
  <wpt lat="42.5502494" lon="23.7030773"><time>2026-04-17T05:01:20Z</time></wpt>
  <wpt lat="42.5500125" lon="23.7035143"><time>2026-04-17T05:01:21Z</time></wpt>
  <wpt lat="42.5497749" lon="23.7039505"><time>2026-04-17T05:01:22Z</time></wpt>
  <wpt lat="42.5495379" lon="23.7043874"><time>2026-04-17T05:01:23Z</time></wpt>
  <wpt lat="42.5493005" lon="23.7048239"><time>2026-04-17T05:01:24Z</time></wpt>
  <wpt lat="42.5490629" lon="23.7052602"><time>2026-04-17T05:01:25Z</time></wpt>
  <wpt lat="42.5488251" lon="23.7056963"><time>2026-04-17T05:01:26Z</time></wpt>
  <wpt lat="42.5485880" lon="23.7061331"><time>2026-04-17T05:01:27Z</time></wpt>
  <wpt lat="42.5483499" lon="23.7065689"><time>2026-04-17T05:01:28Z</time></wpt>
  <wpt lat="42.5481119" lon="23.7070048"><time>2026-04-17T05:01:29Z</time></wpt>
  <wpt lat="42.5478737" lon="23.7074405"><time>2026-04-17T05:01:30Z</time></wpt>
  <wpt lat="42.5476368" lon="23.7078774"><time>2026-04-17T05:01:31Z</time></wpt>
  <wpt lat="42.5473978" lon="23.7083123"><time>2026-04-17T05:01:32Z</time></wpt>
  <wpt lat="42.5471590" lon="23.7087474"><time>2026-04-17T05:01:33Z</time></wpt>
  <wpt lat="42.5469212" lon="23.7091834"><time>2026-04-17T05:01:34Z</time></wpt>
  <wpt lat="42.5466830" lon="23.7096191"><time>2026-04-17T05:01:35Z</time></wpt>
  <wpt lat="42.5464454" lon="23.7100554"><time>2026-04-17T05:01:36Z</time></wpt>
  <wpt lat="42.5462070" lon="23.7104908"><time>2026-04-17T05:01:37Z</time></wpt>
  <wpt lat="42.5459704" lon="23.7109281"><time>2026-04-17T05:01:38Z</time></wpt>
  <wpt lat="42.5457327" lon="23.7113643"><time>2026-04-17T05:01:39Z</time></wpt>
  <wpt lat="42.5454949" lon="23.7118003"><time>2026-04-17T05:01:40Z</time></wpt>
  <wpt lat="42.5452577" lon="23.7122370"><time>2026-04-17T05:01:41Z</time></wpt>
  <wpt lat="42.5450192" lon="23.7126722"><time>2026-04-17T05:01:42Z</time></wpt>
  <wpt lat="42.5447797" lon="23.7131065"><time>2026-04-17T05:01:43Z</time></wpt>
  <wpt lat="42.5445436" lon="23.7135443"><time>2026-04-17T05:01:44Z</time></wpt>
  <wpt lat="42.5443050" lon="23.7139795"><time>2026-04-17T05:01:45Z</time></wpt>
  <wpt lat="42.5440669" lon="23.7144152"><time>2026-04-17T05:01:46Z</time></wpt>
  <wpt lat="42.5438292" lon="23.7148514"><time>2026-04-17T05:01:47Z</time></wpt>
  <wpt lat="42.5435861" lon="23.7152820"><time>2026-04-17T05:01:48Z</time></wpt>
  <wpt lat="42.5433383" lon="23.7157077"><time>2026-04-17T05:01:49Z</time></wpt>
  <wpt lat="42.5430882" lon="23.7161308"><time>2026-04-17T05:01:50Z</time></wpt>
  <wpt lat="42.5428361" lon="23.7165518"><time>2026-04-17T05:01:51Z</time></wpt>
  <wpt lat="42.5425798" lon="23.7169681"><time>2026-04-17T05:01:52Z</time></wpt>
  <wpt lat="42.5423203" lon="23.7173806"><time>2026-04-17T05:01:53Z</time></wpt>
  <wpt lat="42.5420572" lon="23.7177890"><time>2026-04-17T05:01:54Z</time></wpt>
  <wpt lat="42.5417907" lon="23.7181933"><time>2026-04-17T05:01:55Z</time></wpt>
  <wpt lat="42.5415223" lon="23.7185954"><time>2026-04-17T05:01:56Z</time></wpt>
  <wpt lat="42.5412525" lon="23.7189955"><time>2026-04-17T05:01:57Z</time></wpt>
  <wpt lat="42.5409786" lon="23.7193907"><time>2026-04-17T05:01:58Z</time></wpt>
  <wpt lat="42.5407055" lon="23.7197867"><time>2026-04-17T05:01:59Z</time></wpt>
  <wpt lat="42.5404342" lon="23.7201851"><time>2026-04-17T05:02:00Z</time></wpt>
  <wpt lat="42.5401623" lon="23.7205827"><time>2026-04-17T05:02:01Z</time></wpt>
  <wpt lat="42.5398924" lon="23.7209829"><time>2026-04-17T05:02:02Z</time></wpt>
  <wpt lat="42.5396249" lon="23.7213859"><time>2026-04-17T05:02:03Z</time></wpt>
  <wpt lat="42.5393596" lon="23.7217916"><time>2026-04-17T05:02:04Z</time></wpt>
  <wpt lat="42.5390984" lon="23.7222023"><time>2026-04-17T05:02:05Z</time></wpt>
  <wpt lat="42.5388409" lon="23.7226172"><time>2026-04-17T05:02:06Z</time></wpt>
  <wpt lat="42.5385868" lon="23.7230359"><time>2026-04-17T05:02:07Z</time></wpt>
  <wpt lat="42.5383360" lon="23.7234583"><time>2026-04-17T05:02:08Z</time></wpt>
  <wpt lat="42.5380893" lon="23.7238851"><time>2026-04-17T05:02:09Z</time></wpt>
  <wpt lat="42.5378458" lon="23.7243152"><time>2026-04-17T05:02:10Z</time></wpt>
  <wpt lat="42.5376052" lon="23.7247484"><time>2026-04-17T05:02:11Z</time></wpt>
  <wpt lat="42.5373665" lon="23.7251835"><time>2026-04-17T05:02:12Z</time></wpt>
  <wpt lat="42.5371337" lon="23.7256244"><time>2026-04-17T05:02:13Z</time></wpt>
  <wpt lat="42.5369049" lon="23.7260692"><time>2026-04-17T05:02:14Z</time></wpt>
  <wpt lat="42.5366809" lon="23.7265184"><time>2026-04-17T05:02:15Z</time></wpt>
  <wpt lat="42.5364570" lon="23.7269678"><time>2026-04-17T05:02:16Z</time></wpt>
  <wpt lat="42.5362374" lon="23.7274210"><time>2026-04-17T05:02:17Z</time></wpt>
  <wpt lat="42.5360239" lon="23.7278796"><time>2026-04-17T05:02:18Z</time></wpt>
  <wpt lat="42.5358144" lon="23.7283415"><time>2026-04-17T05:02:19Z</time></wpt>
  <wpt lat="42.5356071" lon="23.7288053"><time>2026-04-17T05:02:20Z</time></wpt>
  <wpt lat="42.5354023" lon="23.7292711"><time>2026-04-17T05:02:21Z</time></wpt>
  <wpt lat="42.5352017" lon="23.7297402"><time>2026-04-17T05:02:22Z</time></wpt>
  <wpt lat="42.5349990" lon="23.7302077"><time>2026-04-17T05:02:23Z</time></wpt>
  <wpt lat="42.5347956" lon="23.7306747"><time>2026-04-17T05:02:24Z</time></wpt>
  <wpt lat="42.5345960" lon="23.7311446"><time>2026-04-17T05:02:25Z</time></wpt>
  <wpt lat="42.5343948" lon="23.7316133"><time>2026-04-17T05:02:26Z</time></wpt>
  <wpt lat="42.5341916" lon="23.7320804"><time>2026-04-17T05:02:27Z</time></wpt>
  <wpt lat="42.5339857" lon="23.7325453"><time>2026-04-17T05:02:28Z</time></wpt>
  <wpt lat="42.5337774" lon="23.7330082"><time>2026-04-17T05:02:29Z</time></wpt>
  <wpt lat="42.5335644" lon="23.7334672"><time>2026-04-17T05:02:30Z</time></wpt>
  <wpt lat="42.5333466" lon="23.7339220"><time>2026-04-17T05:02:31Z</time></wpt>
  <wpt lat="42.5331258" lon="23.7343741"><time>2026-04-17T05:02:32Z</time></wpt>
  <wpt lat="42.5329015" lon="23.7348231"><time>2026-04-17T05:02:33Z</time></wpt>
  <wpt lat="42.5326734" lon="23.7352685"><time>2026-04-17T05:02:34Z</time></wpt>
  <wpt lat="42.5324412" lon="23.7357100"><time>2026-04-17T05:02:35Z</time></wpt>
  <wpt lat="42.5322060" lon="23.7361485"><time>2026-04-17T05:02:36Z</time></wpt>
  <wpt lat="42.5319700" lon="23.7365863"><time>2026-04-17T05:02:37Z</time></wpt>
  <wpt lat="42.5317338" lon="23.7370239"><time>2026-04-17T05:02:38Z</time></wpt>
  <wpt lat="42.5314969" lon="23.7374607"><time>2026-04-17T05:02:39Z</time></wpt>
  <wpt lat="42.5312590" lon="23.7378966"><time>2026-04-17T05:02:40Z</time></wpt>
  <wpt lat="42.5310211" lon="23.7383324"><time>2026-04-17T05:02:41Z</time></wpt>
  <wpt lat="42.5307806" lon="23.7387657"><time>2026-04-17T05:02:42Z</time></wpt>
  <wpt lat="42.5305375" lon="23.7391961"><time>2026-04-17T05:02:43Z</time></wpt>
  <wpt lat="42.5302933" lon="23.7396255"><time>2026-04-17T05:02:44Z</time></wpt>
  <wpt lat="42.5300467" lon="23.7400524"><time>2026-04-17T05:02:45Z</time></wpt>
  <wpt lat="42.5298007" lon="23.7404799"><time>2026-04-17T05:02:46Z</time></wpt>
  <wpt lat="42.5295542" lon="23.7409069"><time>2026-04-17T05:02:47Z</time></wpt>
  <wpt lat="42.5292944" lon="23.7413188"><time>2026-04-17T05:02:48Z</time></wpt>
  <wpt lat="42.5290267" lon="23.7417215"><time>2026-04-17T05:02:49Z</time></wpt>
  <wpt lat="42.5287569" lon="23.7421216"><time>2026-04-17T05:02:50Z</time></wpt>
  <wpt lat="42.5284834" lon="23.7425171"><time>2026-04-17T05:02:51Z</time></wpt>
  <wpt lat="42.5282053" lon="23.7429067"><time>2026-04-17T05:02:52Z</time></wpt>
  <wpt lat="42.5279218" lon="23.7432890"><time>2026-04-17T05:02:53Z</time></wpt>
  <wpt lat="42.5276322" lon="23.7436628"><time>2026-04-17T05:02:54Z</time></wpt>
  <wpt lat="42.5273380" lon="23.7440299"><time>2026-04-17T05:02:55Z</time></wpt>
  <wpt lat="42.5270392" lon="23.7443902"><time>2026-04-17T05:02:56Z</time></wpt>
  <wpt lat="42.5267384" lon="23.7447473"><time>2026-04-17T05:02:57Z</time></wpt>
  <wpt lat="42.5264343" lon="23.7450993"><time>2026-04-17T05:02:58Z</time></wpt>
  <wpt lat="42.5261250" lon="23.7454427"><time>2026-04-17T05:02:59Z</time></wpt>
  <wpt lat="42.5258114" lon="23.7457789"><time>2026-04-17T05:03:00Z</time></wpt>
  <wpt lat="42.5254937" lon="23.7461081"><time>2026-04-17T05:03:01Z</time></wpt>
  <wpt lat="42.5251725" lon="23.7464309"><time>2026-04-17T05:03:02Z</time></wpt>
  <wpt lat="42.5248488" lon="23.7467489"><time>2026-04-17T05:03:03Z</time></wpt>
  <wpt lat="42.5245212" lon="23.7470597"><time>2026-04-17T05:03:04Z</time></wpt>
  <wpt lat="42.5241898" lon="23.7473628"><time>2026-04-17T05:03:05Z</time></wpt>
  <wpt lat="42.5238551" lon="23.7476592"><time>2026-04-17T05:03:06Z</time></wpt>
  <wpt lat="42.5235163" lon="23.7479470"><time>2026-04-17T05:03:07Z</time></wpt>
  <wpt lat="42.5231743" lon="23.7482276"><time>2026-04-17T05:03:08Z</time></wpt>
  <wpt lat="42.5228292" lon="23.7485012"><time>2026-04-17T05:03:09Z</time></wpt>
  <wpt lat="42.5224809" lon="23.7487671"><time>2026-04-17T05:03:10Z</time></wpt>
  <wpt lat="42.5221293" lon="23.7490250"><time>2026-04-17T05:03:11Z</time></wpt>
  <wpt lat="42.5217753" lon="23.7492768"><time>2026-04-17T05:03:12Z</time></wpt>
  <wpt lat="42.5214192" lon="23.7495231"><time>2026-04-17T05:03:13Z</time></wpt>
  <wpt lat="42.5210603" lon="23.7497617"><time>2026-04-17T05:03:14Z</time></wpt>
  <wpt lat="42.5207003" lon="23.7499975"><time>2026-04-17T05:03:15Z</time></wpt>
  <wpt lat="42.5203380" lon="23.7502265"><time>2026-04-17T05:03:16Z</time></wpt>
  <wpt lat="42.5199751" lon="23.7504538"><time>2026-04-17T05:03:17Z</time></wpt>
  <wpt lat="42.5196120" lon="23.7506805"><time>2026-04-17T05:03:18Z</time></wpt>
  <wpt lat="42.5192485" lon="23.7509058"><time>2026-04-17T05:03:19Z</time></wpt>
  <wpt lat="42.5188848" lon="23.7511310"><time>2026-04-17T05:03:20Z</time></wpt>
  <wpt lat="42.5185218" lon="23.7513578"><time>2026-04-17T05:03:21Z</time></wpt>
  <wpt lat="42.5181587" lon="23.7515847"><time>2026-04-17T05:03:22Z</time></wpt>
  <wpt lat="42.5177955" lon="23.7518110"><time>2026-04-17T05:03:23Z</time></wpt>
  <wpt lat="42.5174324" lon="23.7520377"><time>2026-04-17T05:03:24Z</time></wpt>
  <wpt lat="42.5170691" lon="23.7522637"><time>2026-04-17T05:03:25Z</time></wpt>
  <wpt lat="42.5167059" lon="23.7524901"><time>2026-04-17T05:03:26Z</time></wpt>
  <wpt lat="42.5163415" lon="23.7527130"><time>2026-04-17T05:03:27Z</time></wpt>
  <wpt lat="42.5159841" lon="23.7529557"><time>2026-04-17T05:03:28Z</time></wpt>
  <wpt lat="42.5156301" lon="23.7532075"><time>2026-04-17T05:03:29Z</time></wpt>
  <wpt lat="42.5152803" lon="23.7534696"><time>2026-04-17T05:03:30Z</time></wpt>
  <wpt lat="42.5149374" lon="23.7537482"><time>2026-04-17T05:03:31Z</time></wpt>
  <wpt lat="42.5146000" lon="23.7540389"><time>2026-04-17T05:03:32Z</time></wpt>
  <wpt lat="42.5142733" lon="23.7543511"><time>2026-04-17T05:03:33Z</time></wpt>
  <wpt lat="42.5139515" lon="23.7546728"><time>2026-04-17T05:03:34Z</time></wpt>
  <wpt lat="42.5136391" lon="23.7550109"><time>2026-04-17T05:03:35Z</time></wpt>
  <wpt lat="42.5133343" lon="23.7553618"><time>2026-04-17T05:03:36Z</time></wpt>
  <wpt lat="42.5130405" lon="23.7557291"><time>2026-04-17T05:03:37Z</time></wpt>
  <wpt lat="42.5127623" lon="23.7561182"><time>2026-04-17T05:03:38Z</time></wpt>
  <wpt lat="42.5124947" lon="23.7565210"><time>2026-04-17T05:03:39Z</time></wpt>
  <wpt lat="42.5122333" lon="23.7569311"><time>2026-04-17T05:03:40Z</time></wpt>
  <wpt lat="42.5119801" lon="23.7573507"><time>2026-04-17T05:03:41Z</time></wpt>
  <wpt lat="42.5117321" lon="23.7577759"><time>2026-04-17T05:03:42Z</time></wpt>
  <wpt lat="42.5114875" lon="23.7582048"><time>2026-04-17T05:03:43Z</time></wpt>
  <wpt lat="42.5112423" lon="23.7586329"><time>2026-04-17T05:03:44Z</time></wpt>
  <wpt lat="42.5109956" lon="23.7590596"><time>2026-04-17T05:03:45Z</time></wpt>
  <wpt lat="42.5107485" lon="23.7594857"><time>2026-04-17T05:03:46Z</time></wpt>
  <wpt lat="42.5105025" lon="23.7599131"><time>2026-04-17T05:03:47Z</time></wpt>
  <wpt lat="42.5102564" lon="23.7603403"><time>2026-04-17T05:03:48Z</time></wpt>
  <wpt lat="42.5100113" lon="23.7607687"><time>2026-04-17T05:03:49Z</time></wpt>
  <wpt lat="42.5097647" lon="23.7611954"><time>2026-04-17T05:03:50Z</time></wpt>
  <wpt lat="42.5095160" lon="23.7616198"><time>2026-04-17T05:03:51Z</time></wpt>
  <wpt lat="42.5092655" lon="23.7620423"><time>2026-04-17T05:03:52Z</time></wpt>
  <wpt lat="42.5090156" lon="23.7624655"><time>2026-04-17T05:03:53Z</time></wpt>
  <wpt lat="42.5087624" lon="23.7628851"><time>2026-04-17T05:03:54Z</time></wpt>
  <wpt lat="42.5085049" lon="23.7632997"><time>2026-04-17T05:03:55Z</time></wpt>
  <wpt lat="42.5082338" lon="23.7636981"><time>2026-04-17T05:03:56Z</time></wpt>
  <wpt lat="42.5079519" lon="23.7640824"><time>2026-04-17T05:03:57Z</time></wpt>
  <wpt lat="42.5076616" lon="23.7644550"><time>2026-04-17T05:03:58Z</time></wpt>
  <wpt lat="42.5073597" lon="23.7648102"><time>2026-04-17T05:03:59Z</time></wpt>
  <wpt lat="42.5070484" lon="23.7651503"><time>2026-04-17T05:04:00Z</time></wpt>
  <wpt lat="42.5067283" lon="23.7654749"><time>2026-04-17T05:04:01Z</time></wpt>
  <wpt lat="42.5064006" lon="23.7657852"><time>2026-04-17T05:04:02Z</time></wpt>
  <wpt lat="42.5060676" lon="23.7660851"><time>2026-04-17T05:04:03Z</time></wpt>
  <wpt lat="42.5057317" lon="23.7663790"><time>2026-04-17T05:04:04Z</time></wpt>
  <wpt lat="42.5053941" lon="23.7666691"><time>2026-04-17T05:04:05Z</time></wpt>
  <wpt lat="42.5050566" lon="23.7669595"><time>2026-04-17T05:04:06Z</time></wpt>
  <wpt lat="42.5047187" lon="23.7672493"><time>2026-04-17T05:04:07Z</time></wpt>
  <wpt lat="42.5043805" lon="23.7675382"><time>2026-04-17T05:04:08Z</time></wpt>
  <wpt lat="42.5040428" lon="23.7678281"><time>2026-04-17T05:04:09Z</time></wpt>
  <wpt lat="42.5037060" lon="23.7681200"><time>2026-04-17T05:04:10Z</time></wpt>
  <wpt lat="42.5033687" lon="23.7684111"><time>2026-04-17T05:04:11Z</time></wpt>
  <wpt lat="42.5030320" lon="23.7687030"><time>2026-04-17T05:04:12Z</time></wpt>
  <wpt lat="42.5026960" lon="23.7689967"><time>2026-04-17T05:04:13Z</time></wpt>
  <wpt lat="42.5023597" lon="23.7692897"><time>2026-04-17T05:04:14Z</time></wpt>
  <wpt lat="42.5020226" lon="23.7695810"><time>2026-04-17T05:04:15Z</time></wpt>
  <wpt lat="42.5016862" lon="23.7698738"><time>2026-04-17T05:04:16Z</time></wpt>
  <wpt lat="42.5013496" lon="23.7701662"><time>2026-04-17T05:04:17Z</time></wpt>
  <wpt lat="42.5010128" lon="23.7704581"><time>2026-04-17T05:04:18Z</time></wpt>
  <wpt lat="42.5006749" lon="23.7707476"><time>2026-04-17T05:04:19Z</time></wpt>
  <wpt lat="42.5003360" lon="23.7710351"><time>2026-04-17T05:04:20Z</time></wpt>
  <wpt lat="42.4999969" lon="23.7713220"><time>2026-04-17T05:04:21Z</time></wpt>
  <wpt lat="42.4996590" lon="23.7716117"><time>2026-04-17T05:04:22Z</time></wpt>
  <wpt lat="42.4993239" lon="23.7719072"><time>2026-04-17T05:04:23Z</time></wpt>
  <wpt lat="42.4989908" lon="23.7722067"><time>2026-04-17T05:04:24Z</time></wpt>
  <wpt lat="42.4986583" lon="23.7725076"><time>2026-04-17T05:04:25Z</time></wpt>
  <wpt lat="42.4983251" lon="23.7728070"><time>2026-04-17T05:04:26Z</time></wpt>
  <wpt lat="42.4979895" lon="23.7731015"><time>2026-04-17T05:04:27Z</time></wpt>
  <wpt lat="42.4976526" lon="23.7733932"><time>2026-04-17T05:04:28Z</time></wpt>
  <wpt lat="42.4973164" lon="23.7736863"><time>2026-04-17T05:04:29Z</time></wpt>
  <wpt lat="42.4969805" lon="23.7739802"><time>2026-04-17T05:04:30Z</time></wpt>
  <wpt lat="42.4966445" lon="23.7742739"><time>2026-04-17T05:04:31Z</time></wpt>
  <wpt lat="42.4963084" lon="23.7745672"><time>2026-04-17T05:04:32Z</time></wpt>
  <wpt lat="42.4959720" lon="23.7748600"><time>2026-04-17T05:04:33Z</time></wpt>
  <wpt lat="42.4956359" lon="23.7751533"><time>2026-04-17T05:04:34Z</time></wpt>
  <wpt lat="42.4952999" lon="23.7754470"><time>2026-04-17T05:04:35Z</time></wpt>
  <wpt lat="42.4949661" lon="23.7757450"><time>2026-04-17T05:04:36Z</time></wpt>
  <wpt lat="42.4946345" lon="23.7760477"><time>2026-04-17T05:04:37Z</time></wpt>
  <wpt lat="42.4943066" lon="23.7763576"><time>2026-04-17T05:04:38Z</time></wpt>
  <wpt lat="42.4939833" lon="23.7766763"><time>2026-04-17T05:04:39Z</time></wpt>
  <wpt lat="42.4936664" lon="23.7770066"><time>2026-04-17T05:04:40Z</time></wpt>
  <wpt lat="42.4933572" lon="23.7773501"><time>2026-04-17T05:04:41Z</time></wpt>
  <wpt lat="42.4930548" lon="23.7777045"><time>2026-04-17T05:04:42Z</time></wpt>
  <wpt lat="42.4927610" lon="23.7780720"><time>2026-04-17T05:04:43Z</time></wpt>
  <wpt lat="42.4924758" lon="23.7784517"><time>2026-04-17T05:04:44Z</time></wpt>
  <wpt lat="42.4921992" lon="23.7788430"><time>2026-04-17T05:04:45Z</time></wpt>
  <wpt lat="42.4919305" lon="23.7792442"><time>2026-04-17T05:04:46Z</time></wpt>
  <wpt lat="42.4916704" lon="23.7796557"><time>2026-04-17T05:04:47Z</time></wpt>
  <wpt lat="42.4914190" lon="23.7800771"><time>2026-04-17T05:04:48Z</time></wpt>
  <wpt lat="42.4911764" lon="23.7805078"><time>2026-04-17T05:04:49Z</time></wpt>
  <wpt lat="42.4909386" lon="23.7809435"><time>2026-04-17T05:04:50Z</time></wpt>
  <wpt lat="42.4907063" lon="23.7813846"><time>2026-04-17T05:04:51Z</time></wpt>
  <wpt lat="42.4904774" lon="23.7818289"><time>2026-04-17T05:04:52Z</time></wpt>
  <wpt lat="42.4902495" lon="23.7822743"><time>2026-04-17T05:04:53Z</time></wpt>
  <wpt lat="42.4900221" lon="23.7827200"><time>2026-04-17T05:04:54Z</time></wpt>
  <wpt lat="42.4897949" lon="23.7831660"><time>2026-04-17T05:04:55Z</time></wpt>
  <wpt lat="42.4895684" lon="23.7836126"><time>2026-04-17T05:04:56Z</time></wpt>
  <wpt lat="42.4893415" lon="23.7840588"><time>2026-04-17T05:04:57Z</time></wpt>
  <wpt lat="42.4891139" lon="23.7845044"><time>2026-04-17T05:04:58Z</time></wpt>
  <wpt lat="42.4888853" lon="23.7849490"><time>2026-04-17T05:04:59Z</time></wpt>
  <wpt lat="42.4886539" lon="23.7853910"><time>2026-04-17T05:05:00Z</time></wpt>
  <wpt lat="42.4884157" lon="23.7858262"><time>2026-04-17T05:05:01Z</time></wpt>
  <wpt lat="42.4881723" lon="23.7862561"><time>2026-04-17T05:05:02Z</time></wpt>
  <wpt lat="42.4879176" lon="23.7866738"><time>2026-04-17T05:05:03Z</time></wpt>
  <wpt lat="42.4876546" lon="23.7870818"><time>2026-04-17T05:05:04Z</time></wpt>
  <wpt lat="42.4873818" lon="23.7874780"><time>2026-04-17T05:05:05Z</time></wpt>
  <wpt lat="42.4870997" lon="23.7878620"><time>2026-04-17T05:05:06Z</time></wpt>
  <wpt lat="42.4868112" lon="23.7882370"><time>2026-04-17T05:05:07Z</time></wpt>
  <wpt lat="42.4865146" lon="23.7886003"><time>2026-04-17T05:05:08Z</time></wpt>
  <wpt lat="42.4862111" lon="23.7889529"><time>2026-04-17T05:05:09Z</time></wpt>
  <wpt lat="42.4858992" lon="23.7892917"><time>2026-04-17T05:05:10Z</time></wpt>
  <wpt lat="42.4855813" lon="23.7896203"><time>2026-04-17T05:05:11Z</time></wpt>
  <wpt lat="42.4852556" lon="23.7899343"><time>2026-04-17T05:05:12Z</time></wpt>
  <wpt lat="42.4849227" lon="23.7902342"><time>2026-04-17T05:05:13Z</time></wpt>
  <wpt lat="42.4845816" lon="23.7905167"><time>2026-04-17T05:05:14Z</time></wpt>
  <wpt lat="42.4842367" lon="23.7907906"><time>2026-04-17T05:05:15Z</time></wpt>
  <wpt lat="42.4838895" lon="23.7910590"><time>2026-04-17T05:05:16Z</time></wpt>
  <wpt lat="42.4835420" lon="23.7913270"><time>2026-04-17T05:05:17Z</time></wpt>
  <wpt lat="42.4831942" lon="23.7915941"><time>2026-04-17T05:05:18Z</time></wpt>
  <wpt lat="42.4828423" lon="23.7918508"><time>2026-04-17T05:05:19Z</time></wpt>
  <wpt lat="42.4824907" lon="23.7921087"><time>2026-04-17T05:05:20Z</time></wpt>
  <wpt lat="42.4821385" lon="23.7923650"><time>2026-04-17T05:05:21Z</time></wpt>
  <wpt lat="42.4817860" lon="23.7926205"><time>2026-04-17T05:05:22Z</time></wpt>
  <wpt lat="42.4814349" lon="23.7928794"><time>2026-04-17T05:05:23Z</time></wpt>
  <wpt lat="42.4810841" lon="23.7931393"><time>2026-04-17T05:05:24Z</time></wpt>
  <wpt lat="42.4807358" lon="23.7934051"><time>2026-04-17T05:05:25Z</time></wpt>
  <wpt lat="42.4803931" lon="23.7936839"><time>2026-04-17T05:05:26Z</time></wpt>
  <wpt lat="42.4800572" lon="23.7939775"><time>2026-04-17T05:05:27Z</time></wpt>
  <wpt lat="42.4797287" lon="23.7942861"><time>2026-04-17T05:05:28Z</time></wpt>
  <wpt lat="42.4794108" lon="23.7946144"><time>2026-04-17T05:05:29Z</time></wpt>
  <wpt lat="42.4790996" lon="23.7949544"><time>2026-04-17T05:05:30Z</time></wpt>
  <wpt lat="42.4787995" lon="23.7953123"><time>2026-04-17T05:05:31Z</time></wpt>
  <wpt lat="42.4785107" lon="23.7956869"><time>2026-04-17T05:05:32Z</time></wpt>
  <wpt lat="42.4782317" lon="23.7960748"><time>2026-04-17T05:05:33Z</time></wpt>
  <wpt lat="42.4779647" lon="23.7964781"><time>2026-04-17T05:05:34Z</time></wpt>
  <wpt lat="42.4777073" lon="23.7968925"><time>2026-04-17T05:05:35Z</time></wpt>
  <wpt lat="42.4774609" lon="23.7973192"><time>2026-04-17T05:05:36Z</time></wpt>
  <wpt lat="42.4772256" lon="23.7977572"><time>2026-04-17T05:05:37Z</time></wpt>
  <wpt lat="42.4770016" lon="23.7982059"><time>2026-04-17T05:05:38Z</time></wpt>
  <wpt lat="42.4767929" lon="23.7986681"><time>2026-04-17T05:05:39Z</time></wpt>
  <wpt lat="42.4765902" lon="23.7991351"><time>2026-04-17T05:05:40Z</time></wpt>
  <wpt lat="42.4763958" lon="23.7996086"><time>2026-04-17T05:05:41Z</time></wpt>
  <wpt lat="42.4762058" lon="23.8000854"><time>2026-04-17T05:05:42Z</time></wpt>
  <wpt lat="42.4760166" lon="23.8005628"><time>2026-04-17T05:05:43Z</time></wpt>
  <wpt lat="42.4758258" lon="23.8010389"><time>2026-04-17T05:05:44Z</time></wpt>
  <wpt lat="42.4756333" lon="23.8015139"><time>2026-04-17T05:05:45Z</time></wpt>
  <wpt lat="42.4754438" lon="23.8019910"><time>2026-04-17T05:05:46Z</time></wpt>
  <wpt lat="42.4752541" lon="23.8024680"><time>2026-04-17T05:05:47Z</time></wpt>
  <wpt lat="42.4750646" lon="23.8029451"><time>2026-04-17T05:05:48Z</time></wpt>
  <wpt lat="42.4748760" lon="23.8034229"><time>2026-04-17T05:05:49Z</time></wpt>
  <wpt lat="42.4746888" lon="23.8039017"><time>2026-04-17T05:05:50Z</time></wpt>
  <wpt lat="42.4745015" lon="23.8043804"><time>2026-04-17T05:05:51Z</time></wpt>
  <wpt lat="42.4743147" lon="23.8048595"><time>2026-04-17T05:05:52Z</time></wpt>
  <wpt lat="42.4741293" lon="23.8053396"><time>2026-04-17T05:05:53Z</time></wpt>
  <wpt lat="42.4739401" lon="23.8058169"><time>2026-04-17T05:05:54Z</time></wpt>
  <wpt lat="42.4737482" lon="23.8062923"><time>2026-04-17T05:05:55Z</time></wpt>
  <wpt lat="42.4735548" lon="23.8067665"><time>2026-04-17T05:05:56Z</time></wpt>
  <wpt lat="42.4733574" lon="23.8072377"><time>2026-04-17T05:05:57Z</time></wpt>
  <wpt lat="42.4731544" lon="23.8077045"><time>2026-04-17T05:05:58Z</time></wpt>
  <wpt lat="42.4729449" lon="23.8081660"><time>2026-04-17T05:05:59Z</time></wpt>
  <wpt lat="42.4727306" lon="23.8086234"><time>2026-04-17T05:06:00Z</time></wpt>
  <wpt lat="42.4725139" lon="23.8090787"><time>2026-04-17T05:06:01Z</time></wpt>
  <wpt lat="42.4722956" lon="23.8095327"><time>2026-04-17T05:06:02Z</time></wpt>
  <wpt lat="42.4720737" lon="23.8099834"><time>2026-04-17T05:06:03Z</time></wpt>
  <wpt lat="42.4718508" lon="23.8104332"><time>2026-04-17T05:06:04Z</time></wpt>
  <wpt lat="42.4716265" lon="23.8108817"><time>2026-04-17T05:06:05Z</time></wpt>
  <wpt lat="42.4714011" lon="23.8113291"><time>2026-04-17T05:06:06Z</time></wpt>
  <wpt lat="42.4711752" lon="23.8117762"><time>2026-04-17T05:06:07Z</time></wpt>
  <wpt lat="42.4709493" lon="23.8122233"><time>2026-04-17T05:06:08Z</time></wpt>
  <wpt lat="42.4707235" lon="23.8126703"><time>2026-04-17T05:06:09Z</time></wpt>
  <wpt lat="42.4704980" lon="23.8131177"><time>2026-04-17T05:06:10Z</time></wpt>
  <wpt lat="42.4702737" lon="23.8135663"><time>2026-04-17T05:06:11Z</time></wpt>
  <wpt lat="42.4700509" lon="23.8140161"><time>2026-04-17T05:06:12Z</time></wpt>
  <wpt lat="42.4698280" lon="23.8144659"><time>2026-04-17T05:06:13Z</time></wpt>
  <wpt lat="42.4695969" lon="23.8149080"><time>2026-04-17T05:06:14Z</time></wpt>
  <wpt lat="42.4693656" lon="23.8153499"><time>2026-04-17T05:06:15Z</time></wpt>
  <wpt lat="42.4691435" lon="23.8158004"><time>2026-04-17T05:06:16Z</time></wpt>
  <wpt lat="42.4689250" lon="23.8162541"><time>2026-04-17T05:06:17Z</time></wpt>
  <wpt lat="42.4687088" lon="23.8167099"><time>2026-04-17T05:06:18Z</time></wpt>
  <wpt lat="42.4685005" lon="23.8171723"><time>2026-04-17T05:06:19Z</time></wpt>
  <wpt lat="42.4682988" lon="23.8176401"><time>2026-04-17T05:06:20Z</time></wpt>
  <wpt lat="42.4681009" lon="23.8181108"><time>2026-04-17T05:06:21Z</time></wpt>
  <wpt lat="42.4679099" lon="23.8185868"><time>2026-04-17T05:06:22Z</time></wpt>
  <wpt lat="42.4677243" lon="23.8190667"><time>2026-04-17T05:06:23Z</time></wpt>
  <wpt lat="42.4675452" lon="23.8195511"><time>2026-04-17T05:06:24Z</time></wpt>
  <wpt lat="42.4673722" lon="23.8200396"><time>2026-04-17T05:06:25Z</time></wpt>
  <wpt lat="42.4672070" lon="23.8205330"><time>2026-04-17T05:06:26Z</time></wpt>
  <wpt lat="42.4670468" lon="23.8210294"><time>2026-04-17T05:06:27Z</time></wpt>
  <wpt lat="42.4668927" lon="23.8215293"><time>2026-04-17T05:06:28Z</time></wpt>
  <wpt lat="42.4667429" lon="23.8220316"><time>2026-04-17T05:06:29Z</time></wpt>
  <wpt lat="42.4665962" lon="23.8225357"><time>2026-04-17T05:06:30Z</time></wpt>
  <wpt lat="42.4664520" lon="23.8230410"><time>2026-04-17T05:06:31Z</time></wpt>
  <wpt lat="42.4663097" lon="23.8235473"><time>2026-04-17T05:06:32Z</time></wpt>
  <wpt lat="42.4661695" lon="23.8240548"><time>2026-04-17T05:06:33Z</time></wpt>
  <wpt lat="42.4660312" lon="23.8245631"><time>2026-04-17T05:06:34Z</time></wpt>
  <wpt lat="42.4658917" lon="23.8250709"><time>2026-04-17T05:06:35Z</time></wpt>
  <wpt lat="42.4657515" lon="23.8255783"><time>2026-04-17T05:06:36Z</time></wpt>
  <wpt lat="42.4656078" lon="23.8260838"><time>2026-04-17T05:06:37Z</time></wpt>
  <wpt lat="42.4654593" lon="23.8265869"><time>2026-04-17T05:06:38Z</time></wpt>
  <wpt lat="42.4652963" lon="23.8270815"><time>2026-04-17T05:06:39Z</time></wpt>
  <wpt lat="42.4651220" lon="23.8275691"><time>2026-04-17T05:06:40Z</time></wpt>
  <wpt lat="42.4649303" lon="23.8280445"><time>2026-04-17T05:06:41Z</time></wpt>
  <wpt lat="42.4647231" lon="23.8285078"><time>2026-04-17T05:06:42Z</time></wpt>
  <wpt lat="42.4645015" lon="23.8289586"><time>2026-04-17T05:06:43Z</time></wpt>
  <wpt lat="42.4642638" lon="23.8293941"><time>2026-04-17T05:06:44Z</time></wpt>
  <wpt lat="42.4640155" lon="23.8298187"><time>2026-04-17T05:06:45Z</time></wpt>
  <wpt lat="42.4637490" lon="23.8302223"><time>2026-04-17T05:06:46Z</time></wpt>
  <wpt lat="42.4634684" lon="23.8306082"><time>2026-04-17T05:06:47Z</time></wpt>
  <wpt lat="42.4631795" lon="23.8309824"><time>2026-04-17T05:06:48Z</time></wpt>
  <wpt lat="42.4628750" lon="23.8313333"><time>2026-04-17T05:06:49Z</time></wpt>
  <wpt lat="42.4625630" lon="23.8316719"><time>2026-04-17T05:06:50Z</time></wpt>
  <wpt lat="42.4622420" lon="23.8319946"><time>2026-04-17T05:06:51Z</time></wpt>
  <wpt lat="42.4619114" lon="23.8322992"><time>2026-04-17T05:06:52Z</time></wpt>
  <wpt lat="42.4615754" lon="23.8325924"><time>2026-04-17T05:06:53Z</time></wpt>
  <wpt lat="42.4612391" lon="23.8328852"><time>2026-04-17T05:06:54Z</time></wpt>
  <wpt lat="42.4609027" lon="23.8331780"><time>2026-04-17T05:06:55Z</time></wpt>
  <wpt lat="42.4605659" lon="23.8334697"><time>2026-04-17T05:06:56Z</time></wpt>
  <wpt lat="42.4602291" lon="23.8337614"><time>2026-04-17T05:06:57Z</time></wpt>
  <wpt lat="42.4598923" lon="23.8340531"><time>2026-04-17T05:06:58Z</time></wpt>
  <wpt lat="42.4595554" lon="23.8343447"><time>2026-04-17T05:06:59Z</time></wpt>
  <wpt lat="42.4592184" lon="23.8346359"><time>2026-04-17T05:07:00Z</time></wpt>
  <wpt lat="42.4588806" lon="23.8349256"><time>2026-04-17T05:07:01Z</time></wpt>
  <wpt lat="42.4585429" lon="23.8352153"><time>2026-04-17T05:07:02Z</time></wpt>
  <wpt lat="42.4582051" lon="23.8355050"><time>2026-04-17T05:07:03Z</time></wpt>
  <wpt lat="42.4578677" lon="23.8357953"><time>2026-04-17T05:07:04Z</time></wpt>
  <wpt lat="42.4575302" lon="23.8360857"><time>2026-04-17T05:07:05Z</time></wpt>
  <wpt lat="42.4571937" lon="23.8363781"><time>2026-04-17T05:07:06Z</time></wpt>
  <wpt lat="42.4568588" lon="23.8366738"><time>2026-04-17T05:07:07Z</time></wpt>
  <wpt lat="42.4565247" lon="23.8369710"><time>2026-04-17T05:07:08Z</time></wpt>
  <wpt lat="42.4561906" lon="23.8372685"><time>2026-04-17T05:07:09Z</time></wpt>
  <wpt lat="42.4558579" lon="23.8375687"><time>2026-04-17T05:07:10Z</time></wpt>
  <wpt lat="42.4555291" lon="23.8378767"><time>2026-04-17T05:07:11Z</time></wpt>
  <wpt lat="42.4552035" lon="23.8381908"><time>2026-04-17T05:07:12Z</time></wpt>
  <wpt lat="42.4548783" lon="23.8385058"><time>2026-04-17T05:07:13Z</time></wpt>
  <wpt lat="42.4545581" lon="23.8388301"><time>2026-04-17T05:07:14Z</time></wpt>
  <wpt lat="42.4542425" lon="23.8391624"><time>2026-04-17T05:07:15Z</time></wpt>
  <wpt lat="42.4539299" lon="23.8395000"><time>2026-04-17T05:07:16Z</time></wpt>
  <wpt lat="42.4536202" lon="23.8398425"><time>2026-04-17T05:07:17Z</time></wpt>
  <wpt lat="42.4533107" lon="23.8401852"><time>2026-04-17T05:07:18Z</time></wpt>
  <wpt lat="42.4530022" lon="23.8405298"><time>2026-04-17T05:07:19Z</time></wpt>
  <wpt lat="42.4526965" lon="23.8408786"><time>2026-04-17T05:07:20Z</time></wpt>
  <wpt lat="42.4523915" lon="23.8412288"><time>2026-04-17T05:07:21Z</time></wpt>
  <wpt lat="42.4520865" lon="23.8415790"><time>2026-04-17T05:07:22Z</time></wpt>
  <wpt lat="42.4517815" lon="23.8419291"><time>2026-04-17T05:07:23Z</time></wpt>
  <wpt lat="42.4514766" lon="23.8422793"><time>2026-04-17T05:07:24Z</time></wpt>
  <wpt lat="42.4511710" lon="23.8426285"><time>2026-04-17T05:07:25Z</time></wpt>
  <wpt lat="42.4508668" lon="23.8429799"><time>2026-04-17T05:07:26Z</time></wpt>
  <wpt lat="42.4505645" lon="23.8433342"><time>2026-04-17T05:07:27Z</time></wpt>
  <wpt lat="42.4502597" lon="23.8436845"><time>2026-04-17T05:07:28Z</time></wpt>
  <wpt lat="42.4499532" lon="23.8440322"><time>2026-04-17T05:07:29Z</time></wpt>
  <wpt lat="42.4496451" lon="23.8443773"><time>2026-04-17T05:07:30Z</time></wpt>
  <wpt lat="42.4493343" lon="23.8447179"><time>2026-04-17T05:07:31Z</time></wpt>
  <wpt lat="42.4490202" lon="23.8450529"><time>2026-04-17T05:07:32Z</time></wpt>
  <wpt lat="42.4487015" lon="23.8453799"><time>2026-04-17T05:07:33Z</time></wpt>
  <wpt lat="42.4483776" lon="23.8456971"><time>2026-04-17T05:07:34Z</time></wpt>
  <wpt lat="42.4480482" lon="23.8460040"><time>2026-04-17T05:07:35Z</time></wpt>
  <wpt lat="42.4477133" lon="23.8462995"><time>2026-04-17T05:07:36Z</time></wpt>
  <wpt lat="42.4473736" lon="23.8465850"><time>2026-04-17T05:07:37Z</time></wpt>
  <wpt lat="42.4470274" lon="23.8468556"><time>2026-04-17T05:07:38Z</time></wpt>
  <wpt lat="42.4466751" lon="23.8471114"><time>2026-04-17T05:07:39Z</time></wpt>
  <wpt lat="42.4463173" lon="23.8473527"><time>2026-04-17T05:07:40Z</time></wpt>
  <wpt lat="42.4459567" lon="23.8475865"><time>2026-04-17T05:07:41Z</time></wpt>
  <wpt lat="42.4455919" lon="23.8478077"><time>2026-04-17T05:07:42Z</time></wpt>
  <wpt lat="42.4452217" lon="23.8480117"><time>2026-04-17T05:07:43Z</time></wpt>
  <wpt lat="42.4448465" lon="23.8481984"><time>2026-04-17T05:07:44Z</time></wpt>
  <wpt lat="42.4444671" lon="23.8483686"><time>2026-04-17T05:07:45Z</time></wpt>
  <wpt lat="42.4440860" lon="23.8485322"><time>2026-04-17T05:07:46Z</time></wpt>
  <wpt lat="42.4437008" lon="23.8486762"><time>2026-04-17T05:07:47Z</time></wpt>
  <wpt lat="42.4433125" lon="23.8488046"><time>2026-04-17T05:07:48Z</time></wpt>
  <wpt lat="42.4429228" lon="23.8489246"><time>2026-04-17T05:07:49Z</time></wpt>
  <wpt lat="42.4425297" lon="23.8490231"><time>2026-04-17T05:07:50Z</time></wpt>
  <wpt lat="42.4421354" lon="23.8491115"><time>2026-04-17T05:07:51Z</time></wpt>
  <wpt lat="42.4417396" lon="23.8491871"><time>2026-04-17T05:07:52Z</time></wpt>
  <wpt lat="42.4413425" lon="23.8492483"><time>2026-04-17T05:07:53Z</time></wpt>
  <wpt lat="42.4409449" lon="23.8493033"><time>2026-04-17T05:07:54Z</time></wpt>
  <wpt lat="42.4405472" lon="23.8493576"><time>2026-04-17T05:07:55Z</time></wpt>
  <wpt lat="42.4401494" lon="23.8494107"><time>2026-04-17T05:07:56Z</time></wpt>
  <wpt lat="42.4397515" lon="23.8494619"><time>2026-04-17T05:07:57Z</time></wpt>
  <wpt lat="42.4393537" lon="23.8495136"><time>2026-04-17T05:07:58Z</time></wpt>
  <wpt lat="42.4389563" lon="23.8495720"><time>2026-04-17T05:07:59Z</time></wpt>
  <wpt lat="42.4385599" lon="23.8496416"><time>2026-04-17T05:08:00Z</time></wpt>
  <wpt lat="42.4381650" lon="23.8497242"><time>2026-04-17T05:08:01Z</time></wpt>
  <wpt lat="42.4377725" lon="23.8498268"><time>2026-04-17T05:08:02Z</time></wpt>
  <wpt lat="42.4373828" lon="23.8499471"><time>2026-04-17T05:08:03Z</time></wpt>
  <wpt lat="42.4369936" lon="23.8500702"><time>2026-04-17T05:08:04Z</time></wpt>
  <wpt lat="42.4366061" lon="23.8502028"><time>2026-04-17T05:08:05Z</time></wpt>
  <wpt lat="42.4362201" lon="23.8503437"><time>2026-04-17T05:08:06Z</time></wpt>
  <wpt lat="42.4358343" lon="23.8504851"><time>2026-04-17T05:08:07Z</time></wpt>
  <wpt lat="42.4354511" lon="23.8506386"><time>2026-04-17T05:08:08Z</time></wpt>
  <wpt lat="42.4350699" lon="23.8508017"><time>2026-04-17T05:08:09Z</time></wpt>
  <wpt lat="42.4346883" lon="23.8509626"><time>2026-04-17T05:08:10Z</time></wpt>
  <wpt lat="42.4343053" lon="23.8511173"><time>2026-04-17T05:08:11Z</time></wpt>
  <wpt lat="42.4339203" lon="23.8512626"><time>2026-04-17T05:08:12Z</time></wpt>
  <wpt lat="42.4335375" lon="23.8514183"><time>2026-04-17T05:08:13Z</time></wpt>
  <wpt lat="42.4331554" lon="23.8515775"><time>2026-04-17T05:08:14Z</time></wpt>
  <wpt lat="42.4327732" lon="23.8517358"><time>2026-04-17T05:08:15Z</time></wpt>
  <wpt lat="42.4323907" lon="23.8518929"><time>2026-04-17T05:08:16Z</time></wpt>
  <wpt lat="42.4320087" lon="23.8520522"><time>2026-04-17T05:08:17Z</time></wpt>
  <wpt lat="42.4316271" lon="23.8522133"><time>2026-04-17T05:08:18Z</time></wpt>
  <wpt lat="42.4312452" lon="23.8523731"><time>2026-04-17T05:08:19Z</time></wpt>
  <wpt lat="42.4308632" lon="23.8525327"><time>2026-04-17T05:08:20Z</time></wpt>
  <wpt lat="42.4304808" lon="23.8526903"><time>2026-04-17T05:08:21Z</time></wpt>
  <wpt lat="42.4300984" lon="23.8528476"><time>2026-04-17T05:08:22Z</time></wpt>
  <wpt lat="42.4297161" lon="23.8530057"><time>2026-04-17T05:08:23Z</time></wpt>
  <wpt lat="42.4293342" lon="23.8531654"><time>2026-04-17T05:08:24Z</time></wpt>
  <wpt lat="42.4289525" lon="23.8533260"><time>2026-04-17T05:08:25Z</time></wpt>
  <wpt lat="42.4285704" lon="23.8534851"><time>2026-04-17T05:08:26Z</time></wpt>
  <wpt lat="42.4281883" lon="23.8536442"><time>2026-04-17T05:08:27Z</time></wpt>
  <wpt lat="42.4278073" lon="23.8538076"><time>2026-04-17T05:08:28Z</time></wpt>
  <wpt lat="42.4274264" lon="23.8539718"><time>2026-04-17T05:08:29Z</time></wpt>
  <wpt lat="42.4270463" lon="23.8541394"><time>2026-04-17T05:08:30Z</time></wpt>
  <wpt lat="42.4269940" lon="23.8541630"><time>2026-04-17T05:08:31Z</time></wpt>
  <wpt lat="42.4266148" lon="23.8543341"><time>2026-04-17T05:08:32Z</time></wpt>
  <wpt lat="42.4262356" lon="23.8545053"><time>2026-04-17T05:08:33Z</time></wpt>
  <wpt lat="42.4258564" lon="23.8546764"><time>2026-04-17T05:08:34Z</time></wpt>
  <wpt lat="42.4254772" lon="23.8548476"><time>2026-04-17T05:08:35Z</time></wpt>
  <wpt lat="42.4250980" lon="23.8550187"><time>2026-04-17T05:08:36Z</time></wpt>
  <wpt lat="42.4247187" lon="23.8551898"><time>2026-04-17T05:08:37Z</time></wpt>
  <wpt lat="42.4243395" lon="23.8553610"><time>2026-04-17T05:08:38Z</time></wpt>
  <wpt lat="42.4239603" lon="23.8555321"><time>2026-04-17T05:08:39Z</time></wpt>
  <wpt lat="42.4235811" lon="23.8557032"><time>2026-04-17T05:08:40Z</time></wpt>
  <wpt lat="42.4232019" lon="23.8558744"><time>2026-04-17T05:08:41Z</time></wpt>
  <wpt lat="42.4228227" lon="23.8560455"><time>2026-04-17T05:08:42Z</time></wpt>
  <wpt lat="42.4224435" lon="23.8562166"><time>2026-04-17T05:08:43Z</time></wpt>
  <wpt lat="42.4220643" lon="23.8563877"><time>2026-04-17T05:08:44Z</time></wpt>
  <wpt lat="42.4216850" lon="23.8565589"><time>2026-04-17T05:08:45Z</time></wpt>
  <wpt lat="42.4213058" lon="23.8567300"><time>2026-04-17T05:08:46Z</time></wpt>
  <wpt lat="42.4209266" lon="23.8569011"><time>2026-04-17T05:08:47Z</time></wpt>
  <wpt lat="42.4205474" lon="23.8570722"><time>2026-04-17T05:08:48Z</time></wpt>
  <wpt lat="42.4201682" lon="23.8572433"><time>2026-04-17T05:08:49Z</time></wpt>
  <wpt lat="42.4197890" lon="23.8574144"><time>2026-04-17T05:08:50Z</time></wpt>
  <wpt lat="42.4194098" lon="23.8575855"><time>2026-04-17T05:08:51Z</time></wpt>
  <wpt lat="42.4190306" lon="23.8577566"><time>2026-04-17T05:08:52Z</time></wpt>
  <wpt lat="42.4186513" lon="23.8579277"><time>2026-04-17T05:08:53Z</time></wpt>
  <wpt lat="42.4184617" lon="23.8580133"><time>2026-04-17T05:08:54Z</time></wpt>
</gpx>
